[{"OBJECT_NAME":"STARLINK-32185","OBJECT_ID":"2024-136N","EPOCH":"2026-03-09T06:49:01.073280","MEAN_MOTION":15.3021752,"ECCENTRICITY":0.00016352,"INCLINATION":53.1604,"RA_OF_ASC_NODE":77.4677,"ARG_OF_PERICENTER":79.0304,"MEAN_ANOMALY":281.088,"EPHEMERIS_TYPE":0,"CLASSIFICATION_TYPE":"U","NORAD_CAT_ID":60341,"ELEMENT_SET_NO":999,"REV_AT_EPOCH":8960,"BSTAR":0.00013055525,"MEAN_MOTION_DOT":3.511e-5,"MEAN_MOTION_DDOT":0},{"OBJECT_NAME":"CZ-4B DEB","OBJECT_ID":"2006-015E","EPOCH":"2026-03-09T20:34:53.082912","MEAN_MOTION":15.19885806,"ECCENTRICITY":0.00461993,"INCLINATION":98.0565,"RA_OF_ASC_NODE":201.7753,"ARG_OF_PERICENTER":62.4887,"MEAN_ANOMALY":298.1031,"EPHEMERIS_TYPE":0,"CLASSIFICATION_TYPE":"U","NORAD_CAT_ID":29538,"ELEMENT_SET_NO":999,"REV_AT_EPOCH":5389,"BSTAR":0.0022587151,"MEAN_MOTION_DOT":0.00050103,"MEAN_MOTION_DDOT":0}]
